CCSDS_OMM_VERS = 2.0
CREATION_DATE  = 
ORIGINATOR     = 

OBJECT_NAME    = SL-16 R/B
OBJECT_ID      = 1993-016B
CENTER_NAME    = EARTH
REF_FRAME      = TEME
TIME_SYSTEM    = UTC
MEAN_ELEMENT_THEORY = SGP/SGP4

EPOCH          = 2026-02-20T17:55:15.358656
MEAN_MOTION    = 14.15299959
ECCENTRICITY   = .0010706
INCLINATION    = 71.0042
RA_OF_ASC_NODE = 250.7679
ARG_OF_PERICENTER = 337.2735
MEAN_ANOMALY   = 22.7913

EPHEMERIS_TYPE = 0
CLASSIFICATION_TYPE = U
NORAD_CAT_ID   = 22566
ELEMENT_SET_NO = 999
REV_AT_EPOCH   = 69977
BSTAR          = -.25541E-4
MEAN_MOTION_DOT = -.97E-6
MEAN_MOTION_DDOT = 0

CCSDS_OMM_VERS = 2.0
CREATION_DATE  = 
ORIGINATOR     = 

OBJECT_NAME    = COSMOS 2242
OBJECT_ID      = 1993-024A
CENTER_NAME    = EARTH
REF_FRAME      = TEME
TIME_SYSTEM    = UTC
MEAN_ELEMENT_THEORY = SGP/SGP4

EPOCH          = 2026-02-20T17:15:54.285120
MEAN_MOTION    = 14.96474644
ECCENTRICITY   = .0016629
INCLINATION    = 82.5171
RA_OF_ASC_NODE = 282.9504
ARG_OF_PERICENTER = 7.8071
MEAN_ANOMALY   = 352.3407

EPHEMERIS_TYPE = 0
CLASSIFICATION_TYPE = U
NORAD_CAT_ID   = 22626
ELEMENT_SET_NO = 999
REV_AT_EPOCH   = 77785
BSTAR          = .14255E-3
MEAN_MOTION_DOT = .1648E-4
MEAN_MOTION_DDOT = 0

CCSDS_OMM_VERS = 2.0
CREATION_DATE  = 
ORIGINATOR     = 

OBJECT_NAME    = SL-16 R/B
OBJECT_ID      = 1993-059B
CENTER_NAME    = EARTH
REF_FRAME      = TEME
TIME_SYSTEM    = UTC
MEAN_ELEMENT_THEORY = SGP/SGP4

EPOCH          = 2026-02-20T09:30:34.519968
MEAN_MOTION    = 14.17227405
ECCENTRICITY   = .0019204
INCLINATION    = 70.9895
RA_OF_ASC_NODE = 47.5944
ARG_OF_PERICENTER = 240.3858
MEAN_ANOMALY   = 119.5353

EPHEMERIS_TYPE = 0
CLASSIFICATION_TYPE = U
NORAD_CAT_ID   = 22803
ELEMENT_SET_NO = 999
REV_AT_EPOCH   = 67708
BSTAR          = .13864E-4
MEAN_MOTION_DOT = -.2E-6
MEAN_MOTION_DDOT = 0

CCSDS_OMM_VERS = 2.0
CREATION_DATE  = 
ORIGINATOR     = 

OBJECT_NAME    = ARIANE 40 R/B
OBJECT_ID      = 1993-061H
CENTER_NAME    = EARTH
REF_FRAME      = TEME
TIME_SYSTEM    = UTC
MEAN_ELEMENT_THEORY = SGP/SGP4

EPOCH          = 2026-02-20T17:30:47.110752
MEAN_MOTION    = 14.32851143
ECCENTRICITY   = .0010055
INCLINATION    = 98.4955
RA_OF_ASC_NODE = 120.9490
ARG_OF_PERICENTER = 339.9197
MEAN_ANOMALY   = 20.1590

EPHEMERIS_TYPE = 0
CLASSIFICATION_TYPE = U
NORAD_CAT_ID   = 22830
ELEMENT_SET_NO = 999
REV_AT_EPOCH   = 69167
BSTAR          = .7628E-4
MEAN_MOTION_DOT = .165E-5
MEAN_MOTION_DDOT = 0

CCSDS_OMM_VERS = 2.0
CREATION_DATE  = 
ORIGINATOR     = 

OBJECT_NAME    = SL-16 R/B
OBJECT_ID      = 1994-023B
CENTER_NAME    = EARTH
REF_FRAME      = TEME
TIME_SYSTEM    = UTC
MEAN_ELEMENT_THEORY = SGP/SGP4

EPOCH          = 2026-02-20T12:52:59.336832
MEAN_MOTION    = 14.15010206
ECCENTRICITY   = .0004918
INCLINATION    = 70.9992
RA_OF_ASC_NODE = 106.9126
ARG_OF_PERICENTER = 301.4174
MEAN_ANOMALY   = 58.6467

EPHEMERIS_TYPE = 0
CLASSIFICATION_TYPE = U
NORAD_CAT_ID   = 23088
ELEMENT_SET_NO = 999
REV_AT_EPOCH   = 64366
BSTAR          = .18009E-3
MEAN_MOTION_DOT = .301E-5
MEAN_MOTION_DDOT = 0

CCSDS_OMM_VERS = 2.0
CREATION_DATE  = 
ORIGINATOR     = 

OBJECT_NAME    = SL-16 R/B
OBJECT_ID      = 1994-074B
CENTER_NAME    = EARTH
REF_FRAME      = TEME
TIME_SYSTEM    = UTC
MEAN_ELEMENT_THEORY = SGP/SGP4

EPOCH          = 2026-02-20T16:35:27.898368
MEAN_MOTION    = 14.79386148
ECCENTRICITY   = .0005126
INCLINATION    = 97.7133
RA_OF_ASC_NODE = 83.1956
ARG_OF_PERICENTER = 278.4898
MEAN_ANOMALY   = 195.4153

EPHEMERIS_TYPE = 0
CLASSIFICATION_TYPE = U
NORAD_CAT_ID   = 23343
ELEMENT_SET_NO = 999
REV_AT_EPOCH   = 68473
BSTAR          = .5945E-4
MEAN_MOTION_DOT = .394E-5
MEAN_MOTION_DDOT = 0

CCSDS_OMM_VERS = 2.0
CREATION_DATE  = 
ORIGINATOR     = 

OBJECT_NAME    = SL-16 R/B
OBJECT_ID      = 1994-077B
CENTER_NAME    = EARTH
REF_FRAME      = TEME
TIME_SYSTEM    = UTC
MEAN_ELEMENT_THEORY = SGP/SGP4

EPOCH          = 2026-02-20T09:12:37.067904
MEAN_MOTION    = 14.15563553
ECCENTRICITY   = .0003879
INCLINATION    = 70.9837
RA_OF_ASC_NODE = 28.8952
ARG_OF_PERICENTER = 229.1772
MEAN_ANOMALY   = 130.9014

EPHEMERIS_TYPE = 0
CLASSIFICATION_TYPE = U
NORAD_CAT_ID   = 23405
ELEMENT_SET_NO = 999
REV_AT_EPOCH   = 61378
BSTAR          = .67913E-4
MEAN_MOTION_DOT = .85E-6
MEAN_MOTION_DDOT = 0

CCSDS_OMM_VERS = 2.0
CREATION_DATE  = 
ORIGINATOR     = 

OBJECT_NAME    = SL-16 R/B
OBJECT_ID      = 1995-058B
CENTER_NAME    = EARTH
REF_FRAME      = TEME
TIME_SYSTEM    = UTC
MEAN_ELEMENT_THEORY = SGP/SGP4

EPOCH          = 2026-02-20T17:50:14.584704
MEAN_MOTION    = 14.15495308
ECCENTRICITY   = .0011392
INCLINATION    = 71.0200
RA_OF_ASC_NODE = 215.8318
ARG_OF_PERICENTER = 155.2637
MEAN_ANOMALY   = 204.9035

EPHEMERIS_TYPE = 0
CLASSIFICATION_TYPE = U
NORAD_CAT_ID   = 23705
ELEMENT_SET_NO = 999
REV_AT_EPOCH   = 56545
BSTAR          = -.77137E-4
MEAN_MOTION_DOT = -.198E-5
MEAN_MOTION_DDOT = 0

CCSDS_OMM_VERS = 2.0
CREATION_DATE  = 
ORIGINATOR     = 

OBJECT_NAME    = ORBVIEW 2 (SEASTAR)
OBJECT_ID      = 1997-037A
CENTER_NAME    = EARTH
REF_FRAME      = TEME
TIME_SYSTEM    = UTC
MEAN_ELEMENT_THEORY = SGP/SGP4

EPOCH          = 2026-02-20T09:51:07.090272
MEAN_MOTION    = 14.35480186
ECCENTRICITY   = .0003175
INCLINATION    = 98.8535
RA_OF_ASC_NODE = 215.2671
ARG_OF_PERICENTER = 106.8920
MEAN_ANOMALY   = 253.2613

EPHEMERIS_TYPE = 0
CLASSIFICATION_TYPE = U
NORAD_CAT_ID   = 24883
ELEMENT_SET_NO = 999
REV_AT_EPOCH   = 50599
BSTAR          = .90928E-4
MEAN_MOTION_DOT = .215E-5
MEAN_MOTION_DDOT = 0

